{
    "links": {
        "self": "http://www.neowsapp.com/rest/v1/neo/3651166?api_key=iIulBulltgU6a56xZRHN4H3l9WmuAYTsLGpBGhQ2"
    },
    "id": "3651166",
    "neo_reference_id": "3651166",
    "name": "(2013 TS135)",
    "designation": "2013 TS135",
    "nasa_jpl_url": "http://ssd.jpl.nasa.gov/sbdb.cgi?sstr=3651166",
    "absolute_magnitude_h": 21.7,
    "estimated_diameter": {
        "kilometers": {
            "estimated_diameter_min": 0.1214940408,
            "estimated_diameter_max": 0.2716689341
        },
        "meters": {
            "estimated_diameter_min": 121.4940407996,
            "estimated_diameter_max": 271.6689340891
        },
        "miles": {
            "estimated_diameter_min": 0.0754928736,
            "estimated_diameter_max": 0.1688071972
        },
        "feet": {
            "estimated_diameter_min": 398.6025088171,
            "estimated_diameter_max": 891.3023057169
        }
    },
    "is_potentially_hazardous_asteroid": false,
    "close_approach_data": [
        {
            "close_approach_date": "2013-11-07",
            "close_approach_date_full": "2013-Nov-07 04:46",
            "epoch_date_close_approach": 1383799560000,
            "relative_velocity": {
                "kilometers_per_second": "12.1962220694",
                "kilometers_per_hour": "43906.3994497784",
                "miles_per_hour": "27281.7291470026"
            },
            "miss_distance": {
                "astronomical": "0.262976582",
                "lunar": "102.297890398",
                "kilometers": "39340736.52708034",
                "miles": "24445200.138935092"
            },
            "orbiting_body": "Earth"
        }
    ],
    "orbital_data": {
        "orbit_id": "11",
        "orbit_determination_date": "2017-04-06 08:44:09",
        "first_observation_date": "2013-10-13",
        "last_observation_date": "2013-11-10",
        "data_arc_in_days": 28,
        "observations_used": 37,
        "orbit_uncertainty": "7",
        "minimum_orbit_intersection": ".253431",
        "jupiter_tisserand_invariant": "3.174",
        "epoch_osculation": "2459000.5",
        "eccentricity": ".544746971038968",
        "semi_major_axis": "2.48212881603223",
        "inclination": "21.45916802052394",
        "ascending_node_longitude": "24.85712205682718",
        "orbital_period": "1428.350863334031",
        "perihelion_distance": "1.129996661770133",
        "perihelion_argument": "54.34217455342446",
        "aphelion_distance": "3.834260970294326",
        "perihelion_time": "2459494.313198198405",
        "mean_anomaly": "235.5398579474571",
        "mean_motion": ".252038913715986",
        "equinox": "J2000",
        "orbit_class": {
            "orbit_class_type": "AMO",
            "orbit_class_description": "Near-Earth asteroid orbits similar to that of 1221 Amor",
            "orbit_class_range": "1.017 AU < q (perihelion) < 1.3 AU"
        }
    },
    "is_sentry_object": false
}